      2.10          N: GNSS NAV DATA                        RINEX VERSION / TYPE
fic2rin                                 02/04/2023 00:17:37 PGM / RUN BY / DATE
                                                            END OF HEADER
1  23  2  3  1 59 44.0  .216939952224D-03 -.443378667114D-11  .000000000000D+00
     .650000000000D+02  .240625000000D+02  .410838541646D-08  .205933723712D+01
     .103004276752D-05  .122838838724D-01  .119023025036D-05  .515365103722D+04
     .439184000000D+06 -.201165676117D-06 -.188824793493D+01 -.283122062683D-06
     .989192586516D+00  .372031250000D+03  .936910859698D+00 -.802676291832D-08
     .925038531568D-10  .100000000000D+01  .224700000000D+04  .000000000000D+00
     .240000000000D+01  .000000000000D+00  .465661287308D-08  .650000000000D+02
     .432000000000D+06  .400000000000D+01
11 23  2  3  8  0  0.0 -.943867489696D-04 -.966338120634D-11  .000000000000D+00
     .234000000000D+03  .222500000000D+02  .469733852015D-08  .387742826428D+00
     .111013650894D-05  .774161424488D-03  .942498445511D-06  .515369975471D+04
     .460800000000D+06  .186264514923D-08 -.185281968417D+01 -.223517417908D-07
     .964532864025D+00  .364656250000D+03 -.267222179983D+01 -.836856286995D-08
     .978612191697D-10  .100000000000D+01  .224700000000D+04  .000000000000D+00
     .240000000000D+01  .000000000000D+00 -.884756445885D-08  .746000000000D+03
     .453600000000D+06  .400000000000D+01
12 23  2  3  8  0  0.0 -.335800927132D-03 -.466116034659D-11  .000000000000D+00
     .930000000000D+02  .126250000000D+02  .425553440295D-08 -.246644473504D+01
     .668689608574D-06  .890190969221D-02  .858120620251D-05  .515366436768D+04
     .460800000000D+06  .122934579849D-06  .235513386434D+01 -.111758708954D-07
     .966364238504D+00  .216031250000D+03  .133241056932D+01 -.757817280417D-08
    -.462876423518D-09  .100000000000D+01  .224700000000D+04  .000000000000D+00
     .485000000000D+01  .000000000000D+00 -.125728547573D-07  .930000000000D+02
     .453600000000D+06  .400000000000D+01
13 23  2  3  8  0  0.0  .469984952360D-03  .613908923697D-11  .000000000000D+00
     .153000000000D+03 -.197812500000D+02  .426124892669D-08  .689506444871D+00
    -.899657607079D-06  .676514219958D-02  .992231070995D-05  .515367052650D+04
     .460800000000D+06 -.875443220139D-07  .327210564948D+00  .577419996262D-07
     .969832906508D+00  .192687500000D+03  .938412764544D+00 -.780068207258D-08
     .375372778640D-09  .100000000000D+01  .224700000000D+04  .000000000000D+00
     .340000000000D+01  .000000000000D+00 -.111758708954D-07  .153000000000D+03
     .453600000000D+06  .400000000000D+01
27 23  2  3  8  0  0.0  .111408997327D-03 -.920863385545D-11  .000000000000D+00
     .260000000000D+02  .119000000000D+03  .402481050666D-08  .116976019200D+01
     .619888305664D-05  .112480735406D-01  .923685729504D-05  .515367251396D+04
     .460800000000D+06 -.800937414169D-07 -.295445110242D+01  .108033418655D-06
     .969484015175D+00  .205156250000D+03  .694191186935D+00 -.792747306822D-08
    -.582167106740D-10  .100000000000D+01  .224700000000D+04  .000000000000D+00
     .240000000000D+01  .000000000000D+00  .186264514923D-08  .260000000000D+02
     .453600000000D+06  .400000000000D+01
14 23  2  3  8  0  0.0 -.357599928975D-04  .852651282912D-11  .000000000000D+00
     .144000000000D+03  .125000000000D+01  .464340770228D-08 -.241098966973D+01
     .894069671631D-07  .262660859153D-02  .887922942638D-05  .515366208649D+04
     .460800000000D+06 -.260770320892D-07  .231825725885D+01  .316649675369D-07
     .949689090705D+00  .204312500000D+03 -.308418778327D+01 -.790211486909D-08
    -.438232539859D-09  .100000000000D+01  .224700000000D+04  .000000000000D+00
     .240000000000D+01  .000000000000D+00 -.791624188423D-08  .912000000000D+03
     .453600000000D+06  .400000000000D+01
29 23  2  3  8  0  0.0 -.584031455219D-03 -.204636307899D-11  .000000000000D+00
     .108000000000D+03  .122156250000D+03  .381408744348D-08  .117005750669D+01
     .634044408798D-05  .216592336074D-02  .800564885139D-05  .515359314537D+04
     .460800000000D+06  .819563865662D-07 -.287578985539D+01 -.558793544769D-08
     .978308268272D+00  .234250000000D+03  .241008687665D+01 -.770924969262D-08
     .139291516336D-09  .100000000000D+01  .224700000000D+04  .000000000000D+00
     .340000000000D+01  .000000000000D+00 -.102445483208D-07  .108000000000D+03
     .453600000000D+06  .400000000000D+01
24 23  2  3  8  0  0.0 -.577396713197D-04 -.162572177942D-10  .000000000000D+00
     .890000000000D+02  .158750000000D+02  .553237330270D-08 -.791329844167D+00
     .964850187302D-06  .136952403700D-01  .538676977158D-05  .515365329933D+04
     .460800000000D+06  .894069671631D-07  .115156472706D+01  .296160578728D-06
     .933738540861D+00  .260093750000D+03  .882728266867D+00 -.856357099282D-08
     .128219626576D-09  .100000000000D+01  .224700000000D+04  .000000000000D+00
     .240000000000D+01  .000000000000D+00  .232830643654D-08  .890000000000D+02
     .453600000000D+06  .400000000000D+01
16 23  2  3  8  0  0.0 -.521635171026D-03  .147792889038D-11  .000000000000D+00
     .107000000000D+03  .971875000000D+01  .430875090534D-08  .197966885439D+01
     .393018126488D-06  .133716959972D-01  .955909490585D-05  .515378066635D+04
     .460800000000D+06 -.273808836937D-06  .237349214474D+01 -.156462192535D-06
     .966133869868D+00  .201312500000D+03  .760451085760D+00 -.775925177541D-08
    -.581095633537D-09  .100000000000D+01  .224700000000D+04  .000000000000D+00
     .340000000000D+01  .000000000000D+00 -.102445483208D-07  .107000000000D+03
     .453600000000D+06  .400000000000D+01
30 23  2  3  8  0  0.0 -.531484838575D-03  .113686837722D-11  .000000000000D+00
     .750000000000D+02  .109375000000D+02  .535915180161D-08 -.181243752026D+01
     .394880771637D-06  .609026593156D-02  .516325235367D-05  .515363526535D+04
     .460800000000D+06  .260770320892D-07  .124815104056D+01 -.763684511185D-07
     .935242256800D+00  .265062500000D+03 -.265673285330D+01 -.828605943335D-08
     .185007706314D-09  .100000000000D+01  .224700000000D+04  .000000000000D+00
     .240000000000D+01  .000000000000D+00  .372529029846D-08  .750000000000D+02
     .453600000000D+06  .400000000000D+01
15 23  2  3  8  0  0.0  .101728364825D-04  .329691829393D-11  .000000000000D+00
     .570000000000D+02 -.488750000000D+02  .507413992972D-08  .184438003955D+00
    -.232085585594D-05  .147439599968D-01  .103842467070D-04  .515367477989D+04
     .460800000000D+06 -.221654772758D-06  .534796446019D-01  .143423676491D-06
     .932197968164D+00  .165781250000D+03  .117630629690D+01 -.835284792964D-08
     .277868717205D-09  .100000000000D+01  .224700000000D+04  .000000000000D+00
     .240000000000D+01  .000000000000D+00 -.107102096081D-07  .570000000000D+02
     .453600000000D+06  .400000000000D+01
21 23  2  3  8  0  0.0  .153801403940D-03  .113686837722D-12  .000000000000D+00
     .470000000000D+02  .457812500000D+02  .476734143605D-08  .110661957830D+01
     .191666185856D-05  .248580811312D-01  .497326254845D-06  .515365473557D+04
     .460800000000D+06  .538304448128D-06 -.198897162506D+01 -.223517417908D-06
     .961267044242D+00  .364750000000D+03 -.824464967921D+00 -.842820821156D-08
     .111076055335D-09  .100000000000D+01  .224700000000D+04  .000000000000D+00
     .240000000000D+01  .000000000000D+00 -.102445483208D-07  .470000000000D+02
     .453600000000D+06  .400000000000D+01
20 23  2  3  8  0  0.0  .453058630228D-03 -.238742359215D-11  .000000000000D+00
     .960000000000D+02 -.105875000000D+03  .499770817461D-08 -.166853945154D+00
    -.545941293240D-05  .449129170738D-02  .411272048950D-05  .515374162865D+04
     .460800000000D+06  .372529029846D-07 -.102188984865D+01  .242143869400D-07
     .946742898042D+00  .292687500000D+03 -.292688884220D+01 -.840285001243D-08
    -.172150027883D-09  .100000000000D+01  .224700000000D+04  .000000000000D+00
     .340000000000D+01  .000000000000D+00 -.838190317154D-08  .960000000000D+02
     .453600000000D+06  .400000000000D+01
26 23  2  3  8  0  0.0  .241132918745D-03  .454747350886D-12  .000000000000D+00
     .104000000000D+03 -.268750000000D+01  .506271088223D-08  .293885468408D+01
    -.154599547386D-06  .782851770055D-02  .820867717266D-05  .515363158798D+04
     .460800000000D+06 -.428408384323D-07  .222058326869D+01 -.968575477600D-07
     .934666399579D+00  .208718750000D+03  .444716867374D+00 -.805819279893D-08
    -.532165023952D-09  .100000000000D+01  .224700000000D+04  .000000000000D+00
     .240000000000D+01  .000000000000D+00  .698491930962D-08  .104000000000D+03
     .453600000000D+06  .400000000000D+01
19 23  2  3  8  0  0.0  .272673554718D-03  .511590769747D-11  .000000000000D+00
     .950000000000D+02  .113125000000D+03  .388016162431D-08 -.302830902763D+01
     .592507421970D-05  .907845899928D-02  .755861401558D-05  .515361066246D+04
     .460800000000D+06 -.316649675369D-07 -.284499895545D+01  .158324837685D-06
     .975096655455D+00  .235125000000D+03  .223699650734D+01 -.761317426212D-08
     .159292349451D-09  .100000000000D+01  .224700000000D+04  .000000000000D+00
     .340000000000D+01  .000000000000D+00 -.153668224812D-07  .950000000000D+02
     .453600000000D+06  .400000000000D+01
25 23  2  3  8  0  0.0  .416893512011D-03  .329691829393D-11  .000000000000D+00
     .560000000000D+02  .240625000000D+01  .454840374499D-08 -.254824992029D+01
     .100582838058D-06  .111257736571D-01  .820308923721D-05  .515377958107D+04
     .460800000000D+06  .145286321640D-06  .227414273888D+01 -.782310962677D-07
     .953920474457D+00  .216437500000D+03  .102799131276D+01 -.772960768347D-08
    -.447161483213D-09  .100000000000D+01  .224700000000D+04  .000000000000D+00
     .240000000000D+01  .000000000000D+00  .558793544769D-08  .560000000000D+02
     .453600000000D+06  .400000000000D+01
